IRIDIUM 171             
1 43929U 19002H   24047.91563543  .00000037  00000+0  60951-5 0  9997
2 43929  86.4025 349.5520 0002281  87.9274 272.2183 14.34217326266947
IRIDIUM 170             
1 43930U 19002J   24048.34539248  .00002013  00000+0  31550-3 0  9999
2 43930  86.6144 349.2122 0002593  90.4832 269.6682 14.72228186274078
IRIDIUM 167             
1 43931U 19002K   24047.90929055  .00000395  00000+0  13389-3 0  9991
2 43931  86.4018 349.3579 0002248  87.5253 272.6200 14.34216616266945
IRIDIUM 181             
1 56726U 23068S   24048.01115698  .00000377  00000+0  10556-3 0  9990
2 56726  86.8618  37.1357 0002510 102.1544 257.9939 14.43581839 39659
IRIDIUM 177             
1 56727U 23068T   24048.42111634  .00003100  00000+0  40445-3 0  9999
2 56727  86.2003  12.6792 0002576  96.2869 263.8645 14.80225909 40519
IRIDIUM 174             
1 56728U 23068U   24047.94245637  .00002965  00000+0  38672-3 0  9994
2 56728  86.2009  13.0002 0002461  91.8876 268.2626 14.80223489 40448
IRIDIUM 178             
1 56729U 23068V   24048.20758991  .00002719  00000+0  35403-3 0  9993
2 56729  86.5794  24.5960 0002736  89.4995 270.6540 14.80277813 40489
IRIDIUM 179             
1 56730U 23068W   24048.47265723  .00002941  00000+0  38312-3 0  9999
2 56730  86.6800  27.0947 0002652  94.5727 265.5798 14.80278513 40521
